OBJECT_NAME,OBJECT_ID,EPOCH,MEAN_MOTION,ECCENTRICITY,INCLINATION,RA_OF_ASC_NODE,ARG_OF_PERICENTER,MEAN_ANOMALY,EPHEMERIS_TYPE,CLASSIFICATION_TYPE,NORAD_CAT_ID,ELEMENT_SET_NO,REV_AT_EPOCH,BSTAR,MEAN_MOTION_DOT,MEAN_MOTION_DDOT
COSMOS 2251 DEB,1993-036ZW,2024-01-22T03:48:44.489664,14.77672986,.0078627,74.0226,300.7429,247.7591,111.5231,0,U,34752,999,79575,.11685E-2,.8784E-4,0
COSMOS 2251 DEB,1993-036ZY,2024-01-22T21:32:21.954048,14.38595479,.0030908,74.0307,61.8912,344.7554,69.6764,0,U,34754,999,78249,.32615E-3,.977E-5,0
COSMOS 2251 DEB,1993-036ZZ,2024-01-21T06:41:59.843904,13.48148142,.0412518,73.9284,319.1470,107.9521,41.8745,0,U,34755,999,73196,.81562E-3,.832E-5,0
COSMOS 2251 DEB,1993-036AAA,2024-01-23T00:56:50.762688,13.63790984,.0353589,74.0067,155.4402,175.7997,184.6230,0,U,34756,999,74113,.34729E-2,.4187E-4,0
COSMOS 2251 DEB,1993-036AAC,2024-01-22T06:25:47.805024,13.55221682,.0398692,74.1095,328.4920,251.1839,104.5640,0,U,34758,999,73545,.14818E-2,.1682E-4,0
COSMOS 2251 DEB,1993-036AAE,2024-01-22T04:01:47.892288,14.16697336,.0102744,74.0636,92.0884,313.1816,75.8238,0,U,34760,999,76898,.88154E-3,.1829E-4,0
COSMOS 2251 DEB,1993-036AAF,2024-01-22T11:59:04.316928,14.33344564,.0041157,74.0290,190.2831,34.3735,326.0066,0,U,34761,999,77742,.10657E-2,.294E-4,0
COSMOS 2251 DEB,1993-036AAM,2024-01-22T12:41:26.743200,14.54676933,.0056294,74.0073,199.4326,176.8103,183.3431,0,U,34784,999,78476,.10237E-2,.4445E-4,0
COSMOS 2251 DEB,1993-036AAR,2024-01-22T13:07:01.824096,15.05516325,.0107081,73.9890,334.6898,271.3124,87.5800,0,U,34788,999,80927,.13906E-2,.228E-3,0
COSMOS 2251 DEB,1993-036AAS,2024-01-22T10:51:02.304000,14.52908194,.007723,74.1979,20.4747,0.0380,152.2690,0,U,34789,999,77290,.85317E-2,.36711E-3,0
COSMOS 2251 DEB,1993-036AAT,2024-01-22T12:03:00.028224,14.20593539,.0108681,74.0567,42.6851,272.6459,240.0004,0,U,34790,999,76756,.13642E-2,.3089E-4,0
COSMOS 2251 DEB,1993-036AAV,2024-01-22T10:47:54.320928,14.46238070,.0019113,74.0241,30.0377,285.2213,225.4462,0,U,34792,999,77635,.1595E-2,.5701E-4,0
COSMOS 2251 DEB,1993-036AAW,2024-01-22T22:27:22.788288,14.36525526,.0052037,74.0031,82.7915,38.4864,15.7788,0,U,34793,999,77468,.34677E-3,.1008E-4,0
COSMOS 2251 DEB,1993-036AAZ,2024-01-22T12:33:48.938112,14.42135524,.0112796,74.0347,64.0721,335.2996,153.2072,0,U,34796,999,78053,.11193E-2,.3947E-4,0
COSMOS 2251 DEB,1993-036ABA,2024-01-22T04:00:53.912160,14.30502605,.0092858,73.9836,294.4646,204.9470,154.7179,0,U,34797,999,77495,.11226E-2,.304E-4,0
COSMOS 2251 DEB,1993-036ABC,2024-01-05T10:46:47.811936,13.41273776,.0477251,73.9294,181.7297,347.2073,11.7249,0,U,34813,999,72138,.20587E-2,.2219E-4,0
COSMOS 2251 DEB,1993-036ABD,2024-01-22T08:29:12.183936,14.31142860,.0058841,73.8972,160.1350,190.8448,198.6077,0,U,34814,999,77515,.18E-2,.4816E-4,0
COSMOS 2251 DEB,1993-036ABE,2024-01-23T02:37:07.735584,14.64946174,.007329,74.0462,141.9363,30.4885,330.0512,0,U,34815,999,78540,.10838E-2,.6007E-4,0
COSMOS 2251 DEB,1993-036ABF,2024-01-21T12:36:00.000000,13.55990433,.0382002,73.8865,188.9374,17.2763,40.6433,0,U,34816,999,73405,.86568E-3,.948E-5,0
COSMOS 2251 DEB,1993-036ABH,2024-01-22T08:02:45.055680,14.35065639,.0025552,74.0364,124.6268,8.8405,48.7252,0,U,34818,999,77459,.45268E-3,.127E-4,0
COSMOS 2251 DEB,1993-036ABJ,2024-01-23T00:04:48.029952,14.49486818,.0026283,74.0252,13.5351,270.7824,152.9072,0,U,34819,999,78302,.19972E-2,.7666E-4,0
COSMOS 2251 DEB,1993-036ABN,2024-01-21T19:17:53.124576,14.48378389,.017269,74.0449,323.7407,222.3323,136.4406,0,U,34823,999,78354,.55627E-3,.2483E-4,0
COSMOS 2251 DEB,1993-036ABP,2024-01-14T15:39:44.182944,14.43243283,.0023123,74.0268,8.7947,336.0275,23.9803,0,U,34845,999,77385,.6095E-3,.2031E-4,0
COSMOS 2251 DEB,1993-036ABQ,2024-01-22T21:37:20.311392,14.40188709,.0031001,74.0346,104.9160,339.7404,20.2519,0,U,34846,999,77447,.10359E-2,.3269E-4,0
COSMOS 2251 DEB,1993-036ABR,2024-01-22T08:28:07.648320,15.05631267,.0086525,74.0362,12.2433,251.4265,107.7512,0,U,34847,999,57656,.12461E-2,.19581E-3,0
COSMOS 2251 DEB,1993-036ABW,2024-01-19T14:58:39.446688,14.36008886,.0016594,74.0330,96.7800,8.0012,352.1402,0,U,34852,999,77581,.20935E-3,.583E-5,0
COSMOS 2251 DEB,1993-036ABY,2024-01-21T19:03:34.743168,14.66327416,.0079737,74.0347,62.3961,348.8400,11.0996,0,U,34854,999,61717,.91345E-3,.5257E-4,0
COSMOS 2251 DEB,1993-036ACA,2024-01-22T11:15:21.756384,14.74206440,.0068077,74.0102,26.0099,330.9924,182.9905,0,U,34856,999,78840,.20527E-2,.14067E-3,0
COSMOS 2251 DEB,1993-036ACB,2024-01-22T22:22:58.289376,14.49231975,.0080401,74.0226,332.7475,264.4982,160.8973,0,U,34857,999,77888,.1464E-2,.5788E-4,0
COSMOS 2251 DEB,1993-036ACD,2024-01-22T17:50:36.786048,14.63931660,.0009533,74.0391,266.8943,182.9402,235.0869,0,U,34859,999,78126,.17705E-2,.9254E-4,0
COSMOS 2251 DEB,1993-036ACE,2024-01-22T11:59:57.746688,15.14081005,.0024859,74.0067,146.1300,17.0330,343.1692,0,U,34860,999,78508,.98743E-2,.185662E-2,0
COSMOS 2251 DEB,1993-036ACF,2024-01-22T21:15:37.899648,14.59319926,.002339,74.0290,328.4738,206.8755,210.1860,0,U,34861,999,77895,.36565E-2,.1737E-3,0
COSMOS 2251 DEB,1993-036ACM,2024-01-21T15:53:20.686272,14.30664826,.0057586,74.0401,257.3176,93.3646,293.1599,0,U,34874,999,77141,.11224E-2,.2963E-4,0
COSMOS 2251 DEB,1993-036ACN,2024-01-22T09:17:15.126432,14.44662267,.0018715,74.0480,7.4876,297.8842,213.5700,0,U,34875,999,77770,.91132E-3,.3139E-4,0
COSMOS 2251 DEB,1993-036ACR,2024-01-18T11:43:48.157248,13.42345438,.0441827,73.9675,67.1917,184.9191,244.7915,0,U,34878,999,71950,.16565E-2,.1649E-4,0
COSMOS 2251 DEB,1993-036ACS,2024-01-22T04:35:54.169152,13.30237648,.0521822,73.9209,295.9796,138.6318,225.5552,0,U,34879,999,49129,.45594E-1,.45726E-3,0
COSMOS 2251 DEB,1993-036ACV,2024-01-21T13:05:05.347392,14.59081086,.0085433,74.0480,104.7148,49.1347,311.7181,0,U,34882,999,78434,.26089E-3,.126E-4,0
COSMOS 2251 DEB,1993-036ACW,2024-01-22T00:10:12.462816,14.25482965,.0134078,74.2083,242.5093,261.9242,96.6677,0,U,34883,999,76510,.40693E-2,.10552E-3,0
COSMOS 2251 DEB,1993-036ACX,2024-01-22T21:58:54.508224,14.57708061,.0017572,74.0321,320.1868,216.7406,206.3880,0,U,34884,999,77653,.27966E-2,.1279E-3,0
COSMOS 2251 DEB,1993-036ACY,2024-01-22T12:10:51.925152,14.44645463,.0020369,74.0361,35.8837,287.3747,195.7705,0,U,34885,999,77486,.12523E-2,.4325E-4,0
COSMOS 2251 DEB,1993-036ACZ,2024-01-21T02:21:59.065056,14.88477581,.0082782,73.9723,170.7059,164.8911,195.4772,0,U,34886,999,79393,.21249E-2,.21062E-3,0
COSMOS 2251 DEB,1993-036ADC,2024-01-22T05:33:55.155168,14.59552049,.0018349,74.0192,343.0350,219.7583,204.2470,0,U,34907,999,77722,.3649E-2,.17397E-3,0
COSMOS 2251 DEB,1993-036ADD,2024-01-21T22:46:46.464096,14.33075781,.004399,74.0576,208.9057,40.6016,111.3170,0,U,34908,999,77367,.81442E-3,.2231E-4,0
COSMOS 2251 DEB,1993-036ADE,2024-01-21T20:57:32.081472,14.69315430,.0099629,74.0186,346.0020,294.8360,64.2475,0,U,34909,999,56674,.95125E-3,.6031E-4,0
COSMOS 2251 DEB,1993-036ADF,2024-01-22T05:16:03.948096,13.35624439,.0476274,73.8759,109.4601,345.6361,40.5399,0,U,34910,999,72297,.11966E-2,.1142E-4,0
COSMOS 2251 DEB,1993-036ADG,2024-01-22T07:31:10.220736,14.57429696,.0085636,74.0428,118.7393,60.0076,6.2303,0,U,34911,999,78521,.22879E-3,.1061E-4,0
COSMOS 2251 DEB,1993-036ADH,2024-01-21T22:59:13.176096,14.92608441,.0036556,74.1573,10.6177,85.8513,274.6847,0,U,34912,999,79372,.20098E-2,.20986E-3,0
COSMOS 2251 DEB,1993-036ADJ,2024-01-20T22:41:39.078816,14.34243202,.0020904,74.0288,109.9325,26.3776,91.6579,0,U,34913,999,55268,.87456E-4,.22E-5,0
COSMOS 2251 DEB,1993-036ADK,2024-01-21T11:26:41.656128,14.83693841,.0114738,73.9917,63.2193,149.6567,211.1322,0,U,34914,999,78742,.23148E-2,.21529E-3,0
COSMOS 2251 DEB,1993-036ADM,2024-01-23T01:46:54.037056,15.20591959,.0049205,74.0495,12.6053,321.7307,38.0401,0,U,34916,999,79618,.72157E-2,.166937E-2,0
COSMOS 2251 DEB,1993-036ADP,2024-01-22T02:48:18.078624,14.43484997,.0042719,74.0711,172.8298,320.8899,159.4873,0,U,34918,999,55309,.25237E-2,.8614E-4,0
COSMOS 2251 DEB,1993-036ADR,2024-01-22T10:59:10.032864,14.65466484,.0013442,74.0287,307.5228,191.7123,168.3735,0,U,34920,999,78143,.34906E-2,.1895E-3,0
COSMOS 2251 DEB,1993-036ADV,2024-01-22T21:45:46.079712,14.50918265,.0067646,74.0461,316.1351,215.2286,210.4041,0,U,34924,999,77691,.11356E-2,.4592E-4,0
COSMOS 2251 DEB,1993-036ADX,2024-01-21T11:21:14.911200,14.10063753,.0230062,73.7600,35.2762,355.3275,4.5710,0,U,34944,999,54477,.16651E-2,.3736E-4,0
COSMOS 2251 DEB,1993-036ADZ,2024-01-22T12:43:41.178144,14.54883370,.0057295,74.0224,217.4750,166.0826,194.1933,0,U,34946,999,78145,.953E-3,.4158E-4,0
COSMOS 2251 DEB,1993-036AEB,2024-01-21T07:45:37.575648,14.64499712,.0023068,74.0188,339.1917,211.8752,298.9537,0,U,34948,999,77778,.47034E-2,.25086E-3,0
COSMOS 2251 DEB,1993-036AEC,2024-01-21T15:37:47.054784,14.66926015,.009084,74.0218,12.5076,330.8077,28.8030,0,U,34949,999,78202,.1017E-2,.6024E-4,0
COSMOS 2251 DEB,1993-036AEE,2024-01-22T09:53:39.238944,14.79054190,.0056849,74.0149,18.1575,318.1733,41.5104,0,U,34951,999,78471,.26423E-2,.20112E-3,0
COSMOS 2251 DEB,1993-036AEG,2024-01-21T15:51:05.283648,14.57341985,.0070853,74.0971,268.5411,90.5573,300.5270,0,U,34953,999,78020,.12153E-2,.5672E-4,0
COSMOS 2251 DEB,1993-036AEH,2024-01-22T03:07:28.987968,14.63555566,.0023684,73.9895,298.6700,228.9612,130.9509,0,U,34954,999,77796,.42996E-2,.22448E-3,0
COSMOS 2251 DEB,1993-036AEJ,2024-01-21T03:43:56.221248,14.83748408,.0104243,74.0415,194.7719,90.5380,270.7744,0,U,34955,999,79719,.91892E-3,.8347E-4,0
COSMOS 2251 DEB,1993-036AEM,2024-01-22T13:42:01.541088,15.04252801,.0113633,74.0089,344.8967,248.1241,110.7834,0,U,34958,999,79729,.11526E-2,.18513E-3,0
COSMOS 2251 DEB,1993-036AER,2024-01-22T11:13:07.972032,14.42201886,.0021399,74.0325,38.6125,316.2063,43.7395,0,U,34962,999,77611,.86126E-3,.2819E-4,0
COSMOS 2251 DEB,1993-036AES,2024-01-18T00:15:34.666560,14.39887640,.0048217,74.1747,247.6324,275.5646,84.0012,0,U,34963,999,77268,.1615E-2,.5123E-4,0
